OBJECT_NAME,OBJECT_ID,EPOCH,MEAN_MOTION,ECCENTRICITY,INCLINATION,RA_OF_ASC_NODE,ARG_OF_PERICENTER,MEAN_ANOMALY,EPHEMERIS_TYPE,CLASSIFICATION_TYPE,NORAD_CAT_ID,ELEMENT_SET_NO,REV_AT_EPOCH,BSTAR,MEAN_MOTION_DOT,MEAN_MOTION_DDOT
SCD 1,1993-009B,2026-06-05T18:58:32.306016,14.46114764,.0042009,24.9699,277.9452,17.6251,109.6589,0,U,22490,999,75946,.60799186E-4,.408E-5,0
TECHSAT 1B (GO-32),1998-043D,2026-06-05T11:22:58.377792,14.24426083,.00004056,99.0065,148.9377,200.1436,159.9726,0,U,25397,999,44966,.51301803E-4,.72E-6,0
SCD 2,1998-060A,2026-06-05T15:43:48.059904,14.45521147,.00167326,24.9936,143.2746,2.2603,159.4023,0,U,25504,999,45865,.60038124E-4,.397E-5,0
DLR-TUBSAT,1999-029B,2026-06-05T20:35:00.400992,14.52423906,.0014745,98.6692,151.9890,28.9696,331.2314,0,U,25757,999,43160,.42841362E-4,.126E-5,0
TERRA,1999-068A,2026-06-05T22:26:45.053088,14.61094220,.00008454,97.9461,206.9271,249.6338,234.0500,0,U,25994,999,40796,.99242439E-4,.443E-5,0
MAROC-TUBSAT,2001-056D,2026-06-05T11:08:24.633600,13.70261918,.00199724,99.8078,333.1031,170.8138,244.2660,0,U,27004,999,22458,.20236643E-4,-.29E-6,0
AQUA,2002-022A,2026-06-05T21:40:04.230336,14.62140937,.00015439,98.4271,125.9608,55.7883,22.2980,0,U,27424,999,28162,.19542734E-3,.933E-5,0
SHIYAN-1 (SY-1),2004-012A,2026-06-05T15:14:13.998336,15.33455796,.0006516,97.8687,233.9557,69.5514,290.6426,0,U,28220,999,20932,.459873E-3,.14806E-3,0
AURA,2004-026A,2026-06-05T21:26:53.802528,14.61312019,.00013555,98.3412,113.2541,70.3842,289.7504,0,U,28376,999,16456,.20030469E-3,.941E-5,0
IRS-P5 (CARTOSAT-1),2005-017A,2026-06-05T08:01:13.780992,14.91016980,.00026552,97.5313,179.9363,94.7373,265.4149,0,U,28649,999,14205,.15767746E-3,.1507E-4,0
SINAH 1,2005-043D,2026-06-05T21:57:22.210560,14.64150155,.00134388,98.2847,291.1716,315.2888,44.7230,0,U,28893,999,9887,.84700346E-4,.396E-5,0
RESURS-DK 1,2006-021A,2026-06-05T20:43:46.485408,15.13165500,.00062079,69.9335,8.8639,301.2031,58.8526,0,U,29228,999,10086,.15887853E-3,.2717E-4,0
ARIRANG-2 (KOMPSAT-2),2006-031A,2026-06-05T23:03:02.496384,14.64652494,.00158005,97.8305,341.9502,106.8334,357.1292,0,U,29268,999,5983,.53661943E-4,.241E-5,0
LAPAN-TUBSAT,2007-001A,2026-06-05T20:58:49.048320,14.85937489,.00110682,98.1341,155.8434,218.2541,141.7889,0,U,29709,999,4947,.60436761E-4,.47E-5,0
HAIYANG-1B,2007-010A,2026-06-05T19:37:31.437408,14.31024050,.00124237,98.3490,139.1041,232.0621,127.9441,0,U,31113,999,99900,.56801721E-4,.108E-5,0
COSMO-SKYMED 1,2007-023A,2026-06-05T23:21:08.209152,14.97051638,.00013845,97.8861,348.7355,81.3166,278.8212,0,U,31598,999,2811,.22193271E-3,.2497E-4,0
TERRASAR-X,2007-026A,2026-06-04T16:14:31.233696,15.19148915,.00016197,97.4453,163.5606,90.1175,270.0246,0,U,31698,999,5132,.4517233E-4,.882E-5,0
WORLDVIEW-1 (WV-1),2007-041A,2026-06-05T22:25:50.677248,15.24139912,.00032098,97.3864,276.8422,51.1261,309.0262,0,U,32060,999,4116,.32095005E-3,.7738E-4,0
YAOGAN-3,2007-055A,2026-06-05T23:38:43.820160,14.90737878,.00020192,97.8162,186.9744,87.6074,272.5375,0,U,32289,999,420,.16925296E-3,.1606E-4,0
COSMO-SKYMED 2,2007-059A,2026-06-05T22:54:09.792864,14.82162338,.00014417,97.8885,340.7154,87.6187,272.5191,0,U,32376,999,34,.67116029E-4,.482E-5,0
RADARSAT-2,2007-061A,2026-06-05T21:53:55.358592,14.29982754,.00013266,98.5778,164.0062,80.4486,279.6846,0,U,32382,999,96434,.6900885E-4,.134E-5,0
CARTOSAT-2A,2008-021A,2026-06-06T03:44:23.756064,14.79221509,.0012517,97.7634,206.2404,141.3539,218.8571,0,U,32783,999,97717,.10539E-3,.733E-5,0
HUANJING 1A (HJ-1A),2008-041A,2026-06-06T05:49:51.504672,14.83960695,.0018961,97.6683,143.5053,169.6063,190.5547,0,U,33320,999,95678,.17207E-3,.1384E-4,0
HUANJING 1B (HJ-1B),2008-041B,2026-06-06T04:58:12.540576,14.83299989,.0035075,97.6519,146.6758,217.7561,142.1192,0,U,33321,999,95678,.178E-3,.142E-4,0
GEOEYE 1,2008-042A,2026-06-05T22:45:54.527328,14.64715345,.0005574,98.1236,231.0220,96.4124,263.7713,0,U,33331,999,94850,.11751E-3,.578E-5,0
THEOS,2008-049A,2026-06-06T04:32:19.681152,14.20132211,.0001298,98.5571,214.8293,79.6146,280.5177,0,U,33396,999,91640,.75621E-4,.119E-5,0
COSMO-SKYMED 3,2008-054A,2026-06-06T04:29:00.365856,15.06879901,.0014296,97.8294,15.5744,308.7428,51.2520,0,U,33412,999,95528,.15292E-3,.222E-4,0
YAOGAN-4,2008-061A,2026-06-05T13:31:16.597920,14.83177572,.00156711,97.9306,90.1600,106.7536,253.5398,0,U,33446,999,94394,.14608204E-3,.1141E-4,0
GOSAT (IBUKI),2009-002A,2026-06-05T19:40:58.557216,14.67538648,.0001583,98.0878,268.0440,95.5203,264.6182,0,U,33492,999,92979,.81217E-5,-.2E-7,0
DEIMOS-1,2009-041A,2026-06-06T04:45:38.147616,14.75224927,.0000897,97.7398,314.9028,138.0172,222.1107,0,U,35681,999,90526,.71437E-4,.435E-5,0
DUBAISAT-1,2009-041B,2026-06-05T19:53:36.811392,14.75106201,.0011719,98.0039,290.2122,105.9324,254.3177,0,U,35682,999,90342,.15478E-3,.994E-5,0
OCEANSAT-2,2009-051A,2026-06-06T04:34:39.804672,13.99663306,.0014564,98.2322,145.1392,269.8563,90.0935,0,U,35931,999,87779,.14222E-3,.17E-5,0
WORLDVIEW-2 (WV-2),2009-055A,2026-06-05T23:03:01.261728,14.37896157,.0003194,98.4737,230.5646,249.7948,110.2895,0,U,35946,999,87403,.62788E-4,.146E-5,0
SMOS,2009-059A,2026-06-05T12:20:30.501888,14.39766162,.00013377,98.4426,344.0202,90.3074,269.8267,0,U,36036,999,87177,.97237839E-4,.261E-5,0
YAOGAN-7,2009-069A,2026-06-05T10:39:58.951584,14.77997470,.00259951,98.0085,42.3833,77.8419,282.5701,0,U,36110,999,88789,.8175363E-4,.54E-5,0
TANDEM-X,2010-030A,2026-06-01T10:46:51.497760,15.19149361,.00017833,97.4445,160.3804,80.8335,279.3101,0,U,36605,999,88425,.38591092E-4,.743E-5,0
CARTOSAT-2B,2010-035A,2026-06-06T04:10:43.046976,14.78648050,.0010315,97.9953,207.7933,221.8646,138.1777,0,U,36795,999,85822,.1387E-3,.964E-5,0
YAOGAN-10,2010-038A,2026-06-05T21:50:39.181344,14.85313319,.00016459,97.8977,180.4042,88.6104,32.7127,0,U,36834,999,85553,.22458352E-3,.1876E-4,0
COSMO-SKYMED 4,2010-060A,2026-06-06T04:04:02.823168,14.82159684,.000144,97.8886,340.9290,81.6966,278.4410,0,U,37216,999,84293,.28312E-4,.173E-5,0
RESOURCESAT-2,2011-015A,2026-06-05T21:33:21.475008,14.21604056,.0010169,98.7645,224.4175,291.8847,68.1249,0,U,37387,999,78457,.67424E-4,.104E-5,0
HAIYANG-2A,2011-043A,2026-06-06T01:07:05.408832,13.74549957,.0006286,99.3401,159.9686,115.3082,244.8719,0,U,37781,999,74512,.2047E-3,.15E-5,0
RASAT,2011-044D,2026-06-06T00:14:54.256416,14.68155576,.0019426,98.0572,248.5777,225.6555,248.8340,0,U,37791,999,79154,.95282822E-4,.5E-5,0
SRMSAT,2011-058D,2026-06-05T15:30:37.949184,14.11573181,.0011943,19.9704,129.3229,77.5338,79.4380,0,U,37841,999,75618,.60191484E-4,.376E-5,0
PLEIADES 1A,2011-076F,2026-06-06T00:34:21.353664,14.58563870,.00014846,98.1974,232.2761,98.1382,24.4303,0,U,38012,999,77036,.83155412E-4,.341E-5,0
ZIYUAN 1-02C (ZY 1-02C),2011-079A,2026-06-06T00:36:08.254656,14.38205587,.00062287,98.4070,224.5663,353.4426,127.0262,0,U,38038,999,75760,.15418564E-3,.425E-5,0
ARIRANG-3 (KOMPSAT-3),2012-025B,2026-06-06T00:22:05.972160,14.62196401,.00061511,98.1171,114.6686,138.2824,221.8848,0,U,38338,999,74971,.11134781E-3,.514E-5,0
EXACTVIEW-1 (ADS-1B),2012-039C,2026-06-05T20:46:49.401984,14.24981272,.001054,98.9764,274.0011,198.8021,161.2770,0,U,38709,999,72109,.817319E-4,.145E-5,0
SPOT 6,2012-047A,2026-06-06T00:22:45.131232,14.58556342,.00014377,98.2118,224.4548,95.1924,264.9439,0,U,38755,999,73142,.8698754E-4,.359E-5,0
PLEIADES 1B,2012-068A,2026-06-05T23:11:10.578624,14.58553560,.00015571,98.1944,232.1720,96.0798,264.0579,0,U,39019,999,71921,.87394491E-4,.361E-5,0
GOKTURK 2,2012-073A,2026-06-05T23:01:33.813696,14.75530637,.00019878,97.6821,354.9535,62.5164,297.6248,0,U,39030,999,72285,.47837916E-4,.279E-5,0
LANDSAT 8,2013-008A,2026-06-05T21:36:17.006112,14.57111242,.00014552,98.2303,227.1691,97.0509,263.0855,0,U,39084,999,69625,.9373925E-4,.377E-5,0
SARAL,2013-009A,2026-06-05T22:30:27.943488,14.32853262,.00013472,98.5558,343.6478,359.4692,0.6490,0,U,39086,999,69399,.53284822E-4,.102E-5,0
GAOFEN-1,2013-018A,2026-06-05T11:23:40.845120,14.76521097,.00160696,97.9095,228.7800,307.6988,52.2765,0,U,39150,999,70651,-.45793527E-4,-.371E-5,0
VNREDSAT 1,2013-021B,2026-06-05T22:55:05.112192,14.64845103,.0001654,97.9081,210.8018,91.5238,268.6155,0,U,39160,999,69864,.13044837E-3,.651E-5,0
ARIRANG-5 (KOMPSAT-5),2013-042A,2026-06-05T22:13:34.123296,15.04549256,.00038791,97.6207,343.7843,151.3373,208.8067,0,U,39227,999,70216,.17895024E-3,.2448E-4,0
SKYSAT-A,2013-066C,2026-06-05T22:44:43.001088,15.12913886,.00211929,97.3819,206.7031,357.7631,2.3502,0,U,39418,999,68678,.23325228E-3,.4065E-4,0
DUBAISAT-2,2013-066D,2026-06-05T20:56:42.374688,15.10092300,.00130924,97.4566,147.3145,74.1448,286.1223,0,U,39419,999,68468,.24237772E-3,.3893E-4,0
GPM-CORE,2014-009C,2026-06-05T21:08:27.003840,15.45410629,.00120458,64.9730,346.0113,269.2115,90.7646,0,U,39574,999,69606,.19574382E-3,.9188E-4,0
SENTINEL-1A,2014-016A,2026-06-05T20:20:24.177120,14.59199369,.00014397,98.1779,164.5459,80.6552,279.4810,0,U,39634,999,64836,.42225473E-4,.153E-5,0
KAZEOSAT 1,2014-024A,2026-06-05T23:44:54.779424,14.42075605,.00015166,98.3203,229.7148,75.6482,284.4876,0,U,39731,999,63694,.81059817E-4,.224E-5,0
ALOS-2,2014-029A,2026-06-05T23:30:49.548960,14.79465528,.00016786,97.9214,254.3041,91.8418,268.2986,0,U,39766,999,64992,.25364599E-3,.1843E-4,0
KAZEOSAT 2,2014-033A,2026-06-05T23:32:23.010432,14.85457286,.00088765,97.5409,357.1845,7.1751,352.9591,0,U,40010,999,64729,.11427837E-3,.936E-5,0
HODOYOSHI-4,2014-033B,2026-06-05T22:32:42.601344,14.88103737,.00234564,97.5451,342.3050,346.9513,13.1095,0,U,40011,999,64713,.22153664E-3,.1996E-4,0
DEIMOS-2,2014-033D,2026-06-05T22:17:46.248000,14.93692927,.00019648,97.5834,31.8125,59.3338,300.8076,0,U,40013,999,63604,.18945488E-3,.1949E-4,0
HODOYOSHI-3,2014-033F,2026-06-05T11:07:38.795808,14.85363664,.00336903,97.6409,319.9773,35.4811,324.8636,0,U,40015,999,64588,.14142741E-3,.1176E-4,0
SPOT 7,2014-034A,2026-06-06T00:25:40.620864,14.60948422,.00012035,98.0629,219.7968,82.5865,277.5473,0,U,40053,999,63550,.99950131E-4,.444E-5,0
